STARLINK-35581          
1 66479U 25262Z   25343.00002315 -.00079344  00000+0 -13607-2 0  9994
2 66479  43.0007  92.8972 0001538 265.6241 103.1917 15.50572809  5030
STARLINK-35670          
1 66480U 25262AA  25343.00002315 -.00143634  00000+0 -24815-2 0  9993
2 66480  43.0007  92.8826 0001625 269.9286 104.5376 15.50647478  5032
STARLINK-35698          
1 66481U 25262AB  25343.00002315 -.00143493  00000+0 -24792-2 0  9991
2 66481  43.0007  92.8776 0001673 266.7707 109.6152 15.50645175  5033
STARLINK-35648          
1 66482U 25262AC  25343.00002315 -.00115913  00000+0 -19965-2 0  9994
2 66482  43.0006  92.8735 0001495 263.5141 114.8026 15.50619174  4887
STARLINK-35654          
1 66483U 25262AD  25343.00002315 -.00026907  00000+0 -45428-3 0  9993
2 66483  43.0007  92.8677 0001552 269.4145 110.8217 15.50585225  5032
STARLINK-35371          
1 66484U 25262AE  25343.00002315 -.00139424  00000+0 -24076-2 0  9998
2 66484  43.0006  92.8636 0001680 269.4357 112.6978 15.50643768  5035
STARLINK-34774          
1 66485U 25263A   25343.16668980 -.02125128  00000+0 -42648-1 0  9995
2 66485  43.0005 146.0694 0001336 277.7108 194.6787 15.49380180  5060
STARLINK-34844          
1 66486U 25263B   25343.16668980 -.00324583  00000+0 -57240-2 0  9995
2 66486  43.0006 146.0628 0001699 275.2187 199.6888 15.50749738  5013
STARLINK-34733          
1 66487U 25263C   25342.91670139 -.00027403  00000+0 -46269-3 0  9998
2 66487  43.0005 147.5232 0001586 284.6843 235.0445 15.50592081  5020
STARLINK-35515          
1 66488U 25263D   25343.16668980 -.00311471  00000+0 -54850-2 0  9993
2 66488  43.0004 146.0537 0001610 275.5214 203.2260 15.50742204  5061
STARLINK-35696          
1 66489U 25263E   25343.16668980 -.00099443  00000+0 -17090-2 0  9991
2 66489  43.0007 146.0481 0001782 275.5449 205.1518 15.50608437  5069
STARLINK-35693          
1 66490U 25263F   25343.16668980 -.00233192  00000+0 -40706-2 0  9994
2 66490  43.0007 146.0443 0001592 280.8875 201.6883 15.50701267  5061
