CCSDS_OMM_VERS = 2.0
CREATION_DATE  = 
ORIGINATOR     = 

OBJECT_NAME    = STARLINK-35581
OBJECT_ID      = 2025-262Z
CENTER_NAME    = EARTH
REF_FRAME      = TEME
TIME_SYSTEM    = UTC
MEAN_ELEMENT_THEORY = SGP/SGP4

EPOCH          = 2025-12-09T00:00:02.000160
MEAN_MOTION    = 15.50572809
ECCENTRICITY   = .0001538
INCLINATION    = 43.0007
RA_OF_ASC_NODE = 92.8972
ARG_OF_PERICENTER = 265.6241
MEAN_ANOMALY   = 103.1917

EPHEMERIS_TYPE = 0
CLASSIFICATION_TYPE = U
NORAD_CAT_ID   = 66479
ELEMENT_SET_NO = 999
REV_AT_EPOCH   = 503
BSTAR          = -.13607E-2
MEAN_MOTION_DOT = -.79344E-3
MEAN_MOTION_DDOT = 0

CCSDS_OMM_VERS = 2.0
CREATION_DATE  = 
ORIGINATOR     = 

OBJECT_NAME    = STARLINK-35670
OBJECT_ID      = 2025-262AA
CENTER_NAME    = EARTH
REF_FRAME      = TEME
TIME_SYSTEM    = UTC
MEAN_ELEMENT_THEORY = SGP/SGP4

EPOCH          = 2025-12-09T00:00:02.000160
MEAN_MOTION    = 15.50647478
ECCENTRICITY   = .0001625
INCLINATION    = 43.0007
RA_OF_ASC_NODE = 92.8826
ARG_OF_PERICENTER = 269.9286
MEAN_ANOMALY   = 104.5376

EPHEMERIS_TYPE = 0
CLASSIFICATION_TYPE = U
NORAD_CAT_ID   = 66480
ELEMENT_SET_NO = 999
REV_AT_EPOCH   = 503
BSTAR          = -.24815E-2
MEAN_MOTION_DOT = -.143634E-2
MEAN_MOTION_DDOT = 0

CCSDS_OMM_VERS = 2.0
CREATION_DATE  = 
ORIGINATOR     = 

OBJECT_NAME    = STARLINK-35698
OBJECT_ID      = 2025-262AB
CENTER_NAME    = EARTH
REF_FRAME      = TEME
TIME_SYSTEM    = UTC
MEAN_ELEMENT_THEORY = SGP/SGP4

EPOCH          = 2025-12-09T00:00:02.000160
MEAN_MOTION    = 15.50645175
ECCENTRICITY   = .0001673
INCLINATION    = 43.0007
RA_OF_ASC_NODE = 92.8776
ARG_OF_PERICENTER = 266.7707
MEAN_ANOMALY   = 109.6152

EPHEMERIS_TYPE = 0
CLASSIFICATION_TYPE = U
NORAD_CAT_ID   = 66481
ELEMENT_SET_NO = 999
REV_AT_EPOCH   = 503
BSTAR          = -.24792E-2
MEAN_MOTION_DOT = -.143493E-2
MEAN_MOTION_DDOT = 0

CCSDS_OMM_VERS = 2.0
CREATION_DATE  = 
ORIGINATOR     = 

OBJECT_NAME    = STARLINK-35648
OBJECT_ID      = 2025-262AC
CENTER_NAME    = EARTH
REF_FRAME      = TEME
TIME_SYSTEM    = UTC
MEAN_ELEMENT_THEORY = SGP/SGP4

EPOCH          = 2025-12-09T00:00:02.000160
MEAN_MOTION    = 15.50619174
ECCENTRICITY   = .0001495
INCLINATION    = 43.0006
RA_OF_ASC_NODE = 92.8735
ARG_OF_PERICENTER = 263.5141
MEAN_ANOMALY   = 114.8026

EPHEMERIS_TYPE = 0
CLASSIFICATION_TYPE = U
NORAD_CAT_ID   = 66482
ELEMENT_SET_NO = 999
REV_AT_EPOCH   = 488
BSTAR          = -.19965E-2
MEAN_MOTION_DOT = -.115913E-2
MEAN_MOTION_DDOT = 0

CCSDS_OMM_VERS = 2.0
CREATION_DATE  = 
ORIGINATOR     = 

OBJECT_NAME    = STARLINK-35654
OBJECT_ID      = 2025-262AD
CENTER_NAME    = EARTH
REF_FRAME      = TEME
TIME_SYSTEM    = UTC
MEAN_ELEMENT_THEORY = SGP/SGP4

EPOCH          = 2025-12-09T00:00:02.000160
MEAN_MOTION    = 15.50585225
ECCENTRICITY   = .0001552
INCLINATION    = 43.0007
RA_OF_ASC_NODE = 92.8677
ARG_OF_PERICENTER = 269.4145
MEAN_ANOMALY   = 110.8217

EPHEMERIS_TYPE = 0
CLASSIFICATION_TYPE = U
NORAD_CAT_ID   = 66483
ELEMENT_SET_NO = 999
REV_AT_EPOCH   = 503
BSTAR          = -.45428E-3
MEAN_MOTION_DOT = -.26907E-3
MEAN_MOTION_DDOT = 0

CCSDS_OMM_VERS = 2.0
CREATION_DATE  = 
ORIGINATOR     = 

OBJECT_NAME    = STARLINK-35371
OBJECT_ID      = 2025-262AE
CENTER_NAME    = EARTH
REF_FRAME      = TEME
TIME_SYSTEM    = UTC
MEAN_ELEMENT_THEORY = SGP/SGP4

EPOCH          = 2025-12-09T00:00:02.000160
MEAN_MOTION    = 15.50643768
ECCENTRICITY   = .000168
INCLINATION    = 43.0006
RA_OF_ASC_NODE = 92.8636
ARG_OF_PERICENTER = 269.4357
MEAN_ANOMALY   = 112.6978

EPHEMERIS_TYPE = 0
CLASSIFICATION_TYPE = U
NORAD_CAT_ID   = 66484
ELEMENT_SET_NO = 999
REV_AT_EPOCH   = 503
BSTAR          = -.24076E-2
MEAN_MOTION_DOT = -.139424E-2
MEAN_MOTION_DDOT = 0

CCSDS_OMM_VERS = 2.0
CREATION_DATE  = 
ORIGINATOR     = 

OBJECT_NAME    = STARLINK-34774
OBJECT_ID      = 2025-263A
CENTER_NAME    = EARTH
REF_FRAME      = TEME
TIME_SYSTEM    = UTC
MEAN_ELEMENT_THEORY = SGP/SGP4

EPOCH          = 2025-12-09T04:00:01.998720
MEAN_MOTION    = 15.49380180
ECCENTRICITY   = .0001336
INCLINATION    = 43.0005
RA_OF_ASC_NODE = 146.0694
ARG_OF_PERICENTER = 277.7108
MEAN_ANOMALY   = 194.6787

EPHEMERIS_TYPE = 0
CLASSIFICATION_TYPE = U
NORAD_CAT_ID   = 66485
ELEMENT_SET_NO = 999
REV_AT_EPOCH   = 506
BSTAR          = -.42648E-1
MEAN_MOTION_DOT = -.2125128E-1
MEAN_MOTION_DDOT = 0

CCSDS_OMM_VERS = 2.0
CREATION_DATE  = 
ORIGINATOR     = 

OBJECT_NAME    = STARLINK-34844
OBJECT_ID      = 2025-263B
CENTER_NAME    = EARTH
REF_FRAME      = TEME
TIME_SYSTEM    = UTC
MEAN_ELEMENT_THEORY = SGP/SGP4

EPOCH          = 2025-12-09T04:00:01.998720
MEAN_MOTION    = 15.50749738
ECCENTRICITY   = .0001699
INCLINATION    = 43.0006
RA_OF_ASC_NODE = 146.0628
ARG_OF_PERICENTER = 275.2187
MEAN_ANOMALY   = 199.6888

EPHEMERIS_TYPE = 0
CLASSIFICATION_TYPE = U
NORAD_CAT_ID   = 66486
ELEMENT_SET_NO = 999
REV_AT_EPOCH   = 501
BSTAR          = -.5724E-2
MEAN_MOTION_DOT = -.324583E-2
MEAN_MOTION_DDOT = 0

CCSDS_OMM_VERS = 2.0
CREATION_DATE  = 
ORIGINATOR     = 

OBJECT_NAME    = STARLINK-34733
OBJECT_ID      = 2025-263C
CENTER_NAME    = EARTH
REF_FRAME      = TEME
TIME_SYSTEM    = UTC
MEAN_ELEMENT_THEORY = SGP/SGP4

EPOCH          = 2025-12-08T22:00:03.000096
MEAN_MOTION    = 15.50592081
ECCENTRICITY   = .0001586
INCLINATION    = 43.0005
RA_OF_ASC_NODE = 147.5232
ARG_OF_PERICENTER = 284.6843
MEAN_ANOMALY   = 235.0445

EPHEMERIS_TYPE = 0
CLASSIFICATION_TYPE = U
NORAD_CAT_ID   = 66487
ELEMENT_SET_NO = 999
REV_AT_EPOCH   = 502
BSTAR          = -.4626931E-3
MEAN_MOTION_DOT = -.27403E-3
MEAN_MOTION_DDOT = 0

CCSDS_OMM_VERS = 2.0
CREATION_DATE  = 
ORIGINATOR     = 

OBJECT_NAME    = STARLINK-35515
OBJECT_ID      = 2025-263D
CENTER_NAME    = EARTH
REF_FRAME      = TEME
TIME_SYSTEM    = UTC
MEAN_ELEMENT_THEORY = SGP/SGP4

EPOCH          = 2025-12-09T04:00:01.998720
MEAN_MOTION    = 15.50742204
ECCENTRICITY   = .000161
INCLINATION    = 43.0004
RA_OF_ASC_NODE = 146.0537
ARG_OF_PERICENTER = 275.5214
MEAN_ANOMALY   = 203.2260

EPHEMERIS_TYPE = 0
CLASSIFICATION_TYPE = U
NORAD_CAT_ID   = 66488
ELEMENT_SET_NO = 999
REV_AT_EPOCH   = 506
BSTAR          = -.5485E-2
MEAN_MOTION_DOT = -.311471E-2
MEAN_MOTION_DDOT = 0

CCSDS_OMM_VERS = 2.0
CREATION_DATE  = 
ORIGINATOR     = 

OBJECT_NAME    = STARLINK-35696
OBJECT_ID      = 2025-263E
CENTER_NAME    = EARTH
REF_FRAME      = TEME
TIME_SYSTEM    = UTC
MEAN_ELEMENT_THEORY = SGP/SGP4

EPOCH          = 2025-12-09T04:00:01.998720
MEAN_MOTION    = 15.50608437
ECCENTRICITY   = .0001782
INCLINATION    = 43.0007
RA_OF_ASC_NODE = 146.0481
ARG_OF_PERICENTER = 275.5449
MEAN_ANOMALY   = 205.1518

EPHEMERIS_TYPE = 0
CLASSIFICATION_TYPE = U
NORAD_CAT_ID   = 66489
ELEMENT_SET_NO = 999
REV_AT_EPOCH   = 506
BSTAR          = -.1709E-2
MEAN_MOTION_DOT = -.99443E-3
MEAN_MOTION_DDOT = 0

CCSDS_OMM_VERS = 2.0
CREATION_DATE  = 
ORIGINATOR     = 

OBJECT_NAME    = STARLINK-35693
OBJECT_ID      = 2025-263F
CENTER_NAME    = EARTH
REF_FRAME      = TEME
TIME_SYSTEM    = UTC
MEAN_ELEMENT_THEORY = SGP/SGP4

EPOCH          = 2025-12-09T04:00:01.998720
MEAN_MOTION    = 15.50701267
ECCENTRICITY   = .0001592
INCLINATION    = 43.0007
RA_OF_ASC_NODE = 146.0443
ARG_OF_PERICENTER = 280.8875
MEAN_ANOMALY   = 201.6883

EPHEMERIS_TYPE = 0
CLASSIFICATION_TYPE = U
NORAD_CAT_ID   = 66490
ELEMENT_SET_NO = 999
REV_AT_EPOCH   = 506
BSTAR          = -.40706E-2
MEAN_MOTION_DOT = -.233192E-2
MEAN_MOTION_DDOT = 0

